start=new Date('2023-04-07T00:00:00.000Z').valueOf();
sats=[{"RCS_SIZE":"LARGE","EPHEMERIS_TYPE":"0","MEAN_MOTION_DDOT":"0.0000000000000","TLE_LINE2":"2 51110  53.2197  42.8707 0001116 104.4427 255.6689 15.08838563 67670","ECCENTRICITY":"0.00011160","LAUNCH_DATE":"2022-01-19","EPOCH":"2023-04-06T20:19:00.859008","TLE_LINE1":"1 51110U 22005G   23096.84653772  .00007495  00000-0  48853-3 0  9995","FILE":"3882049","MEAN_MOTION":"15.08838563","MEAN_ELEMENT_THEORY":"SGP4","MEAN_ANOMALY":"255.6689","CENTER_NAME":"EARTH","REF_FRAME":"TEME","PERIOD":"95.438","DECAY_DATE":null,"CLASSIFICATION_TYPE":"U","NORAD_CAT_ID":"51110","BSTAR":"0.00048853000000","ARG_OF_PERICENTER":"104.4427","APOAPSIS":"540.522","INCLINATION":"53.2197","MEAN_MOTION_DOT":"0.00007495","SEMIMAJOR_AXIS":"6917.885","RA_OF_ASC_NODE":"42.8707","COUNTRY_CODE":"US","SITE":"AFETR","OBJECT_NAME":"STARLINK-3344","REV_AT_EPOCH":"6767","OBJECT_ID":"2022-005G","TIME_SYSTEM":"UTC","OBJECT_TYPE":"PAYLOAD","GP_ID":"229643747","ELEMENT_SET_NO":"999","PERIAPSIS":"538.978"},{"EPOCH":"2023-04-06T21:17:17.817792","LAUNCH_DATE":"2022-01-19","TLE_LINE2":"2 51111  53.2174  42.6685 0001338  87.6244 272.4902 15.08837841 67677","ECCENTRICITY":"0.00013380","EPHEMERIS_TYPE":"0","MEAN_MOTION_DDOT":"0.0000000000000","RCS_SIZE":"LARGE","PERIOD":"95.438","DECAY_DATE":null,"REF_FRAME":"TEME","MEAN_ANOMALY":"272.4902","CENTER_NAME":"EARTH","MEAN_ELEMENT_THEORY":"SGP4","MEAN_MOTION":"15.08837841","FILE":"3882049","TLE_LINE1":"1 51111U 22005H   23096.88701178 -.00000293  00000-0 -29709-6 0  9997","OBJECT_NAME":"STARLINK-3173","SITE":"AFETR","COUNTRY_CODE":"US","RA_OF_ASC_NODE":"42.6685","MEAN_MOTION_DOT":"-0.00000293","SEMIMAJOR_AXIS":"6917.887","APOAPSIS":"540.678","INCLINATION":"53.2174","ARG_OF_PERICENTER":"87.6244","BSTAR":"-0.00000029709000","CLASSIFICATION_TYPE":"U","NORAD_CAT_ID":"51111","PERIAPSIS":"538.826","GP_ID":"229644497","ELEMENT_SET_NO":"999","OBJECT_TYPE":"PAYLOAD","TIME_SYSTEM":"UTC","OBJECT_ID":"2022-005H","REV_AT_EPOCH":"6767"},{"RA_OF_ASC_NODE":"42.8668","COUNTRY_CODE":"US","SITE":"AFETR","OBJECT_NAME":"STARLINK-3374","INCLINATION":"53.2170","APOAPSIS":"540.778","SEMIMAJOR_AXIS":"6917.882","MEAN_MOTION_DOT":"0.00002906","ARG_OF_PERICENTER":"99.2181","CLASSIFICATION_TYPE":"U","NORAD_CAT_ID":"51112","BSTAR":"0.00020063000000","PERIAPSIS":"538.715","OBJECT_TYPE":"PAYLOAD","ELEMENT_SET_NO":"999","GP_ID":"229644724","TIME_SYSTEM":"UTC","OBJECT_ID":"2022-005J","REV_AT_EPOCH":"6767","EPOCH":"2023-04-06T20:13:42.685824","LAUNCH_DATE":"2022-01-19","MEAN_MOTION_DDOT":"0.0000000000000","EPHEMERIS_TYPE":"0","ECCENTRICITY":"0.00014910","TLE_LINE2":"2 51112  53.2170  42.8668 0001491  99.2181 260.8979 15.08839614 67671","RCS_SIZE":"LARGE","DECAY_DATE":null,"PERIOD":"95.438","CENTER_NAME":"EARTH","MEAN_ANOMALY":"260.8979","MEAN_ELEMENT_THEORY":"SGP4","REF_FRAME":"TEME","FILE":"3882049","MEAN_MOTION":"15.08839614","TLE_LINE1":"1 51112U 22005J   23096.84285516  .00002906  00000-0  20063-3 0  9999"},{"DECAY_DATE":null,"PERIOD":"95.436","MEAN_ANOMALY":"266.7992","MEAN_ELEMENT_THEORY":"SGP4","CENTER_NAME":"EARTH","REF_FRAME":"TEME","FILE":"3881359","MEAN_MOTION":"15.08857025","TLE_LINE1":"1 51113U 22005K   23096.30188944  .00011024  00000-0  70933-3 0  9990","EPOCH":"2023-04-06T07:14:43.247616","LAUNCH_DATE":"2022-01-19","EPHEMERIS_TYPE":"0","MEAN_MOTION_DDOT":"0.0000000000000","TLE_LINE2":"2 51113  53.2182  45.3009 0001347  93.3154 266.7992 15.08857025 68696","ECCENTRICITY":"0.00013470","RCS_SIZE":"LARGE","PERIAPSIS":"538.762","OBJECT_TYPE":"PAYLOAD","ELEMENT_SET_NO":"999","GP_ID":"229578899","OBJECT_ID":"2022-005K","TIME_SYSTEM":"UTC","REV_AT_EPOCH":"6869","COUNTRY_CODE":"US","RA_OF_ASC_NODE":"45.3009","SITE":"AFETR","OBJECT_NAME":"STARLINK-3372","INCLINATION":"53.2182","APOAPSIS":"540.625","SEMIMAJOR_AXIS":"6917.828","MEAN_MOTION_DOT":"0.00011024","ARG_OF_PERICENTER":"93.3154","NORAD_CAT_ID":"51113","CLASSIFICATION_TYPE":"U","BSTAR":"0.00070933000000"},{"INCLINATION":"53.2163","APOAPSIS":"540.548","SEMIMAJOR_AXIS":"6917.859","MEAN_MOTION_DOT":"0.00001582","COUNTRY_CODE":"US","RA_OF_ASC_NODE":"45.5096","OBJECT_NAME":"STARLINK-3375","SITE":"AFETR","NORAD_CAT_ID":"51114","CLASSIFICATION_TYPE":"U","BSTAR":"0.00011741000000","ARG_OF_PERICENTER":"118.7296","OBJECT_TYPE":"PAYLOAD","ELEMENT_SET_NO":"999","GP_ID":"229611892","PERIAPSIS":"538.899","REV_AT_EPOCH":"6758","TIME_SYSTEM":"UTC","OBJECT_ID":"2022-005L","LAUNCH_DATE":"2022-01-19","EPOCH":"2023-04-06T06:05:49.787808","RCS_SIZE":"LARGE","EPHEMERIS_TYPE":"0","MEAN_MOTION_DDOT":"0.0000000000000","TLE_LINE2":"2 51114  53.2163  45.5096 0001192 118.7296 241.3816 15.08847078 67589","ECCENTRICITY":"0.00011920","MEAN_ANOMALY":"241.3816","MEAN_ELEMENT_THEORY":"SGP4","CENTER_NAME":"EARTH","REF_FRAME":"TEME","DECAY_DATE":null,"PERIOD":"95.437","TLE_LINE1":"1 51114U 22005L   23096.25404847  .00001582  00000-0  11741-3 0  9998","FILE":"3881771","MEAN_MOTION":"15.08847078"},{"OBJECT_ID":"2022-005M","TIME_SYSTEM":"UTC","REV_AT_EPOCH":"6869","PERIAPSIS":"538.874","ELEMENT_SET_NO":"999","GP_ID":"229578892","OBJECT_TYPE":"PAYLOAD","ARG_OF_PERICENTER":"97.9074","BSTAR":"0.00048403000000","NORAD_CAT_ID":"51115","CLASSIFICATION_TYPE":"U","SITE":"AFETR","OBJECT_NAME":"STARLINK-3397","COUNTRY_CODE":"US","RA_OF_ASC_NODE":"45.3330","SEMIMAJOR_AXIS":"6917.835","MEAN_MOTION_DOT":"0.00007427","INCLINATION":"53.2175","APOAPSIS":"540.525","MEAN_MOTION":"15.08855009","FILE":"3881359","TLE_LINE1":"1 51115U 22005M   23096.29452967  .00007427  00000-0  48403-3 0  9998","DECAY_DATE":null,"PERIOD":"95.437","REF_FRAME":"TEME","MEAN_ELEMENT_THEORY":"SGP4","MEAN_ANOMALY":"262.2054","CENTER_NAME":"EARTH","ECCENTRICITY":"0.00011930","TLE_LINE2":"2 51115  53.2175  45.3330 0001193  97.9074 262.2054 15.08855009 68697","MEAN_MOTION_DDOT":"0.0000000000000","EPHEMERIS_TYPE":"0","RCS_SIZE":"LARGE","EPOCH":"2023-04-06T07:04:07.363488","LAUNCH_DATE":"2022-01-19"},{"PERIOD":"95.437","DECAY_DATE":null,"MEAN_ANOMALY":"258.7330","MEAN_ELEMENT_THEORY":"SGP4","CENTER_NAME":"EARTH","REF_FRAME":"TEME","FILE":"3881771","MEAN_MOTION":"15.08847442","TLE_LINE1":"1 51116U 22005N   23096.24301128  .00003467  00000-0  23574-3 0  9998","EPOCH":"2023-04-06T05:49:56.174592","LAUNCH_DATE":"2022-01-19","MEAN_MOTION_DDOT":"0.0000000000000","EPHEMERIS_TYPE":"0","ECCENTRICITY":"0.00011700","TLE_LINE2":"2 51116  53.2174  45.5603 0001170 101.3793 258.7330 15.08847442 67570","RCS_SIZE":"LARGE","PERIAPSIS":"538.913","OBJECT_TYPE":"PAYLOAD","GP_ID":"229610891","ELEMENT_SET_NO":"999","TIME_SYSTEM":"UTC","OBJECT_ID":"2022-005N","REV_AT_EPOCH":"6757","COUNTRY_CODE":"US","RA_OF_ASC_NODE":"45.5603","OBJECT_NAME":"STARLINK-3243","SITE":"AFETR","APOAPSIS":"540.532","INCLINATION":"53.2174","MEAN_MOTION_DOT":"0.00003467","SEMIMAJOR_AXIS":"6917.858","ARG_OF_PERICENTER":"101.3793","CLASSIFICATION_TYPE":"U","NORAD_CAT_ID":"51116","BSTAR":"0.00023574000000"},{"ELEMENT_SET_NO":"999","GP_ID":"229643498","OBJECT_TYPE":"PAYLOAD","PERIAPSIS":"538.850","REV_AT_EPOCH":"6767","OBJECT_ID":"2022-005P","TIME_SYSTEM":"UTC","SEMIMAJOR_AXIS":"6917.905","MEAN_MOTION_DOT":"-0.00000680","INCLINATION":"53.2172","APOAPSIS":"540.690","OBJECT_NAME":"STARLINK-3391","SITE":"AFETR","RA_OF_ASC_NODE":"42.6979","COUNTRY_CODE":"US","BSTAR":"-0.00002466000000","CLASSIFICATION_TYPE":"U","NORAD_CAT_ID":"51117","ARG_OF_PERICENTER":"119.4545","REF_FRAME":"TEME","CENTER_NAME":"EARTH","MEAN_ANOMALY":"240.6580","MEAN_ELEMENT_THEORY":"SGP4","DECAY_DATE":null,"PERIOD":"95.438","TLE_LINE1":"1 51117U 22005P   23096.87324824 -.00000680  00000-0 -24660-4 0  9990","MEAN_MOTION":"15.08831978","FILE":"3882049","LAUNCH_DATE":"2022-01-19","EPOCH":"2023-04-06T20:57:28.647936","RCS_SIZE":"LARGE","TLE_LINE2":"2 51117  53.2172  42.6979 0001330 119.4545 240.6580 15.08831978 67671","ECCENTRICITY":"0.00013300","MEAN_MOTION_DDOT":"0.0000000000000","EPHEMERIS_TYPE":"0"},{"REV_AT_EPOCH":"6757","TIME_SYSTEM":"UTC","OBJECT_ID":"2022-005Q","ELEMENT_SET_NO":"999","GP_ID":"229612393","OBJECT_TYPE":"PAYLOAD","PERIAPSIS":"538.972","BSTAR":"0.00044195000000","CLASSIFICATION_TYPE":"U","NORAD_CAT_ID":"51118","ARG_OF_PERICENTER":"98.4645","SEMIMAJOR_AXIS":"6917.848","MEAN_MOTION_DOT":"0.00006755","INCLINATION":"53.2177","APOAPSIS":"540.454","OBJECT_NAME":"STARLINK-3394","SITE":"AFETR","RA_OF_ASC_NODE":"45.6089","COUNTRY_CODE":"US","TLE_LINE1":"1 51118U 22005Q   23096.23197073  .00006755  00000-0  44195-3 0  9996","MEAN_MOTION":"15.08850468","FILE":"3881771","REF_FRAME":"TEME","MEAN_ANOMALY":"261.6469","CENTER_NAME":"EARTH","MEAN_ELEMENT_THEORY":"SGP4","DECAY_DATE":null,"PERIOD":"95.437","RCS_SIZE":"LARGE","TLE_LINE2":"2 51118  53.2177  45.6089 0001071  98.4645 261.6469 15.08850468 67574","ECCENTRICITY":"0.00010710","MEAN_MOTION_DDOT":"0.0000000000000","EPHEMERIS_TYPE":"0","LAUNCH_DATE":"2022-01-19","EPOCH":"2023-04-06T05:34:02.271072"},{"FILE":"3882049","MEAN_MOTION":"15.08836227","TLE_LINE1":"1 51119U 22005R   23096.87229553  .00001021  00000-0  82257-4 0  9999","PERIOD":"95.438","DECAY_DATE":null,"MEAN_ELEMENT_THEORY":"SGP4","MEAN_ANOMALY":"257.1055","CENTER_NAME":"EARTH","REF_FRAME":"TEME","MEAN_MOTION_DDOT":"0.0000000000000","EPHEMERIS_TYPE":"0","TLE_LINE2":"2 51119  53.2185  42.7404 0001232 103.0075 257.1055 15.08836227 67671","ECCENTRICITY":"0.00012320","RCS_SIZE":"LARGE","EPOCH":"2023-04-06T20:56:06.333792","LAUNCH_DATE":"2022-01-19","OBJECT_ID":"2022-005R","TIME_SYSTEM":"UTC","REV_AT_EPOCH":"6767","PERIAPSIS":"538.905","OBJECT_TYPE":"PAYLOAD","GP_ID":"229644498","ELEMENT_SET_NO":"999","ARG_OF_PERICENTER":"103.0075","CLASSIFICATION_TYPE":"U","NORAD_CAT_ID":"51119","BSTAR":"0.00008225700000","RA_OF_ASC_NODE":"42.7404","COUNTRY_CODE":"US","OBJECT_NAME":"STARLINK-3390","SITE":"AFETR","APOAPSIS":"540.609","INCLINATION":"53.2185","MEAN_MOTION_DOT":"0.00001021","SEMIMAJOR_AXIS":"6917.892"}];
